0 SL-8 R/B
1 16494U 86005B   13282.82965874  .00000041  00000-0  26349-4 0  7067
2 16494 082.9342 353.1431 0020093 044.9052 092.8996 13.76358309392701
0 SL-8 R/B
1 16494U 86005B   13284.19441428  .00000055  00000-0  40707-4 0  7073
2 16494 082.9340 352.1285 0020038 041.3038 014.8988 13.76358178392898
0 SL-8 R/B
1 16494U 86005B   13286.53274711  .00000075  00000-0  61136-4 0  7095
2 16494 082.9337 350.3902 0019869 034.8356 081.0118 13.76358120393215
0 SL-8 R/B
1 16494U 86005B   13287.77331244  .00000067  00000-0  53139-4 0  7104
2 16494 082.9333 349.4679 0019793 031.3909 107.8516 13.76358215393385
0 SL-8 R/B
1 16494U 86005B   13289.13793442  .00000065  00000-0  51127-4 0  7112
2 16494 082.9330 348.4535 0019707 027.5748 029.4038 13.76358474393571
0 SL-8 R/B
1 16494U 86005B   13290.15034266  .00000066  00000-0  51544-4 0  7123
2 16494 082.9327 347.7008 0019650 024.8961 005.6243 13.76358686393713
0 SL-8 R/B
1 16494U 86005B   13291.17244422  .00000051  00000-0  36131-4 0  7133
2 16494 082.9325 346.9407 0019575 022.0342 030.0297 13.76358820393850
0 SL-8 R/B
1 16494U 86005B   13292.19503896  .00000036  00000-0  21073-4 0  7142
2 16494 082.9324 346.1803 0019503 019.1903 056.8604 13.76358926393992
0 SL-8 R/B
1 16494U 86005B   13293.20904100  .00000024  00000-0  92597-5 0  7156
2 16494 082.9323 345.4262 0019437 016.3022 041.1839 13.76358943394132
0 SL-8 R/B
1 16494U 86005B   13294.52520515  .00000026  00000-0  11007-4 0  7165
2 16494 082.9323 344.4473 0019348 012.5204 082.7378 13.76358934394315
0 SL-8 R/B
1 16494U 86005B   13296.18990501  .00000021  00000-0  55818-5 0  7170
2 16494 082.9322 343.2093 0019244 007.7737 051.2386 13.76358933394545
